{
  "links" : {
    "next" : "https://api.nasa.gov/neo/rest/v1/feed?start_date=2014-05-09&end_date=2014-05-09&detailed=true&api_key=t0TVs3DtDT2H8Oy2Zy8m2eVrNsAVKAexjcZXUckd",
    "prev" : "https://api.nasa.gov/neo/rest/v1/feed?start_date=2014-05-07&end_date=2014-05-07&detailed=true&api_key=t0TVs3DtDT2H8Oy2Zy8m2eVrNsAVKAexjcZXUckd",
    "self" : "https://api.nasa.gov/neo/rest/v1/feed?start_date=2014-05-08&end_date=2014-05-08&detailed=true&api_key=t0TVs3DtDT2H8Oy2Zy8m2eVrNsAVKAexjcZXUckd"
  },
  "element_count" : 9,
  "near_earth_objects" : {
    "2014-05-08" : [ {
      "links" : {
        "self" : "https://api.nasa.gov/neo/rest/v1/neo/3670099?api_key=t0TVs3DtDT2H8Oy2Zy8m2eVrNsAVKAexjcZXUckd"
      },
      "neo_reference_id" : "3670099",
      "name" : "(2014 HE177)",
      "nasa_jpl_url" : "http://ssd.jpl.nasa.gov/sbdb.cgi?sstr=3670099",
      "absolute_magnitude_h" : 25.8,
      "estimated_diameter" : {
        "kilometers" : {
          "estimated_diameter_min" : 0.0183888672,
          "estimated_diameter_max" : 0.0411187571
        },
        "meters" : {
          "estimated_diameter_min" : 18.388867207,
          "estimated_diameter_max" : 41.1187571041
        },
        "miles" : {
          "estimated_diameter_min" : 0.0114263088,
          "estimated_diameter_max" : 0.0255500032
        },
        "feet" : {
          "estimated_diameter_min" : 60.3309310875,
          "estimated_diameter_max" : 134.9040630575
        }
      },
      "is_potentially_hazardous_asteroid" : false,
      "close_approach_data" : [ {
        "close_approach_date" : "2014-05-08",
        "epoch_date_close_approach" : 1399532400000,
        "relative_velocity" : {
          "kilometers_per_second" : "5.9376332424",
          "kilometers_per_hour" : "21375.4796727677",
          "miles_per_hour" : "13281.8918000039"
        },
        "miss_distance" : {
          "astronomical" : "0.0490300368",
          "lunar" : "19.0726833344",
          "kilometers" : "7334789",
          "miles" : "4557626.5"
        },
        "orbiting_body" : "Earth"
      } ],
      "orbital_data" : {
        "orbit_id" : "9",
        "orbit_determination_date" : "2017-04-06 08:41:16",
        "orbit_uncertainty" : "8",
        "minimum_orbit_intersection" : ".0478795",
        "jupiter_tisserand_invariant" : "3.719",
        "epoch_osculation" : "2456780.5",
        "eccentricity" : ".4663559483654272",
        "semi_major_axis" : "1.978695157104284",
        "inclination" : "3.553300428823147",
        "ascending_node_longitude" : "219.0298281493402",
        "orbital_period" : "1016.63899333226",
        "perihelion_distance" : "1.055918900586838",
        "perihelion_argument" : "3.987941881929455",
        "aphelion_distance" : "2.901471413621731",
        "perihelion_time" : "2456782.197968818735",
        "mean_anomaly" : "359.3987356586225",
        "mean_motion" : ".354107999359753",
        "equinox" : "J2000"
      }
    }, {
      "links" : {
        "self" : "https://api.nasa.gov/neo/rest/v1/neo/3670146?api_key=t0TVs3DtDT2H8Oy2Zy8m2eVrNsAVKAexjcZXUckd"
      },
      "neo_reference_id" : "3670146",
      "name" : "(2014 HT178)",
      "nasa_jpl_url" : "http://ssd.jpl.nasa.gov/sbdb.cgi?sstr=3670146",
      "absolute_magnitude_h" : 26.6,
      "estimated_diameter" : {
        "kilometers" : {
          "estimated_diameter_min" : 0.0127219879,
          "estimated_diameter_max" : 0.0284472297
        },
        "meters" : {
          "estimated_diameter_min" : 12.7219878539,
          "estimated_diameter_max" : 28.4472296503
        },
        "miles" : {
          "estimated_diameter_min" : 0.0079050743,
          "estimated_diameter_max" : 0.0176762835
        },
        "feet" : {
          "estimated_diameter_min" : 41.7388066307,
          "estimated_diameter_max" : 93.330808926
        }
      },
      "is_potentially_hazardous_asteroid" : false,
      "close_approach_data" : [ {
        "close_approach_date" : "2014-05-08",
        "epoch_date_close_approach" : 1399532400000,
        "relative_velocity" : {
          "kilometers_per_second" : "14.5227422171",
          "kilometers_per_hour" : "52281.8719815679",
          "miles_per_hour" : "32485.9220654359"
        },
        "miss_distance" : {
          "astronomical" : "0.0152417425",
          "lunar" : "5.929037571",
          "kilometers" : "2280132.25",
          "miles" : "1416808.5"
        },
        "orbiting_body" : "Earth"
      } ],
      "orbital_data" : {
        "orbit_id" : "6",
        "orbit_determination_date" : "2017-04-06 08:41:14",
        "orbit_uncertainty" : "9",
        "minimum_orbit_intersection" : ".011164",
        "jupiter_tisserand_invariant" : "3.211",
        "epoch_osculation" : "2456776.5",
        "eccentricity" : ".639025778260951",
        "semi_major_axis" : "2.397938980668366",
        "inclination" : "4.711498145943961",
        "ascending_node_longitude" : "41.1739466449268",
        "orbital_period" : "1356.299551884837",
        "perihelion_distance" : ".8655941573244917",
        "perihelion_argument" : "238.54992005",
        "aphelion_distance" : "3.930283804012239",
        "perihelion_time" : "2456822.721098054102",
        "mean_anomaly" : "347.7316222095976",
        "mean_motion" : ".265428090350477",
        "equinox" : "J2000"
      }
    }, {
      "links" : {
        "self" : "https://api.nasa.gov/neo/rest/v1/neo/3698537?api_key=t0TVs3DtDT2H8Oy2Zy8m2eVrNsAVKAexjcZXUckd"
      },
      "neo_reference_id" : "3698537",
      "name" : "(2014 HO198)",
      "nasa_jpl_url" : "http://ssd.jpl.nasa.gov/sbdb.cgi?sstr=3698537",
      "absolute_magnitude_h" : 26.5,
      "estimated_diameter" : {
        "kilometers" : {
          "estimated_diameter_min" : 0.0133215567,
          "estimated_diameter_max" : 0.0297879063
        },
        "meters" : {
          "estimated_diameter_min" : 13.3215566698,
          "estimated_diameter_max" : 29.7879062798
        },
        "miles" : {
          "estimated_diameter_min" : 0.008277629,
          "estimated_diameter_max" : 0.0185093411
        },
        "feet" : {
          "estimated_diameter_min" : 43.7058959846,
          "estimated_diameter_max" : 97.7293544391
        }
      },
      "is_potentially_hazardous_asteroid" : false,
      "close_approach_data" : [ {
        "close_approach_date" : "2014-05-08",
        "epoch_date_close_approach" : 1399532400000,
        "relative_velocity" : {
          "kilometers_per_second" : "6.3264064691",
          "kilometers_per_hour" : "22775.0632888273",
          "miles_per_hour" : "14151.5386307716"
        },
        "miss_distance" : {
          "astronomical" : "0.0464607475",
          "lunar" : "18.0732307434",
          "kilometers" : "6950429",
          "miles" : "4318796.5"
        },
        "orbiting_body" : "Earth"
      } ],
      "orbital_data" : {
        "orbit_id" : "3",
        "orbit_determination_date" : "2017-04-06 08:40:50",
        "orbit_uncertainty" : "9",
        "minimum_orbit_intersection" : ".042845",
        "jupiter_tisserand_invariant" : "4.317",
        "epoch_osculation" : "2456776.5",
        "eccentricity" : ".3556669746615339",
        "semi_major_axis" : "1.582114221384585",
        "inclination" : "4.218021317419922",
        "ascending_node_longitude" : "23.75822781045203",
        "orbital_period" : "726.8673786174256",
        "perihelion_distance" : "1.019408442695741",
        "perihelion_argument" : "227.254375128586",
        "aphelion_distance" : "2.144820000073428",
        "perihelion_time" : "2456806.475833298287",
        "mean_anomaly" : "345.1536878599375",
        "mean_motion" : ".4952760442830108",
        "equinox" : "J2000"
      }
    } ]
  }
}